<?xml version="1.0" encoding="UTF-8"?>
<kml xmlns="http://www.opengis.net/kml/2.2" xmlns:gx="http://www.google.com/kml/ext/2.2" xmlns:kml="http://www.opengis.net/kml/2.2" xmlns:atom="http://www.w3.org/2005/Atom">
<Document>
	<name>Olivar gps.kml</name>
	<Style id="s_ylw-pushpin_hl">
		<IconStyle>
			<scale>1.3</scale>
			<Icon>
				<href>http://maps.google.com/mapfiles/kml/pushpin/ylw-pushpin.png</href>
			</Icon>
			<hotSpot x="20" y="2" xunits="pixels" yunits="pixels"/>
		</IconStyle>
		<PolyStyle>
			<fill>0</fill>
		</PolyStyle>
	</Style>
	<Style id="s_ylw-pushpin">
		<IconStyle>
			<scale>1.1</scale>
			<Icon>
				<href>http://maps.google.com/mapfiles/kml/pushpin/ylw-pushpin.png</href>
			</Icon>
			<hotSpot x="20" y="2" xunits="pixels" yunits="pixels"/>
		</IconStyle>
		<PolyStyle>
			<fill>0</fill>
		</PolyStyle>
	</Style>
	<StyleMap id="m_ylw-pushpin">
		<Pair>
			<key>normal</key>
			<styleUrl>#s_ylw-pushpin</styleUrl>
		</Pair>
		<Pair>
			<key>highlight</key>
			<styleUrl>#s_ylw-pushpin_hl</styleUrl>
		</Pair>
	</StyleMap>
	<Placemark>
		<name>Oivar gps</name>
		<styleUrl>#m_ylw-pushpin</styleUrl>
		<Polygon>
			<tessellate>1</tessellate>
			<outerBoundaryIs>
				<LinearRing>
					<coordinates>
						-71.09371621200377,-28.49994449081924,0 -71.09423531820013,-28.50163629585414,0 -71.09372902267275,-28.50178035872869,0 -71.0936303842438,-28.50164859237387,0 -71.09355142409645,-28.50160814946406,0 -71.09342549424162,-28.50164318637185,0 -71.09319991194099,-28.50153378811378,0 -71.09304082620258,-28.50141259179725,0 -71.09289927827531,-28.50127769410894,0 -71.09256389725829,-28.50106530290671,0 -71.09244022835321,-28.50097819657775,0 -71.09241426159126,-28.50079094616989,0 -71.09238680932965,-28.50072845330362,0 -71.0923091033368,-28.50067371400132,0 -71.09223409003153,-28.50064026164623,0 -71.0921892730271,-28.50065093044629,0 -71.09213824790496,-28.50065582420215,0 -71.09208216351749,-28.50062528491918,0 -71.09195505352221,-28.50055221647867,0 -71.09183720798743,-28.50050653134151,0 -71.0916369937717,-28.50044533133016,0 -71.09147869056812,-28.50035352316041,0 -71.09140932259068,-28.50027780337224,0 -71.09133608939499,-28.50025613808132,0 -71.09126903858045,-28.50025176991763,0 -71.09113246722117,-28.50029443560197,0 -71.09099800379804,-28.50025980762058,0 -71.09090526125247,-28.50023881708679,0 -71.09077893330976,-28.50016578695769,0 -71.09068637012713,-28.50011506918783,0 -71.09057629751827,-28.50002737475347,0 -71.09091359284226,-28.49966695589149,0 -71.09116257402718,-28.49935620899853,0 -71.09131509863273,-28.49920935348053,0 -71.09150555005583,-28.49902401676824,0 -71.09166500498064,-28.49877034567538,0 -71.09172950169737,-28.49871515617716,0 -71.09192161730468,-28.49904748803102,0 -71.09202269661041,-28.49920615605547,0 -71.09222069954876,-28.49918016507824,0 -71.09255742833987,-28.49912117812469,0 -71.09294518991219,-28.50010241554053,0 -71.09371621200377,-28.49994449081924,0 
					</coordinates>
				</LinearRing>
			</outerBoundaryIs>
		</Polygon>
	</Placemark>
</Document>
</kml>
